COSMOS 2493 (SKRL-756 1)
1 39490U 13078A   26068.88109627  .00005252  00000+0  40276-3 0  9992
2 39490  82.4165 358.3033 0011855 214.7485 145.2966 15.01584319663059
STARLINK-6260           
1 56416U 23061AU  26067.58302806  .00001342  00000+0  11444-3 0  9993
2 56416  43.0055 177.8685 0001585 278.7098  81.3565 15.02527641156882
